      2.10          N: GNSS NAV DATA                        RINEX VERSION / TYPE
fic2rin                                 05/01/2021 00:17:15 PGM / RUN BY / DATE
                                                            END OF HEADER
21 21  4 30 18  0  0.0 1.148339360952e-04 2.728484105319e-12 0.000000000000e+00
    3.300000000000e+01-1.202187500000e+02 4.477686513616e-09 2.452653423020e+00
   -5.956739187241e-06 2.410197863355e-02 5.049630999565e-06 5.153700031281e+03
    4.968000000000e+05 4.004687070847e-07-3.021128006039e+00-1.862645149231e-09
    9.572466045005e-01 2.739687500000e+02-1.147003863441e+00-7.834612057325e-09
   -3.996595045654e-10 1.000000000000e+00 2.155000000000e+03 0.000000000000e+00
    2.400000000000e+00 0.000000000000e+00-1.024454832077e-08 3.300000000000e+01
    4.896000000000e+05 4.000000000000e+00
19 21  4 30 18  0  0.0-6.059650331736e-06 5.002220859751e-12 0.000000000000e+00
    8.700000000000e+01-7.843750000000e+00 4.392682972878e-09-1.511734278966e+00
   -1.527369022369e-07 9.240942890756e-03 1.303851604462e-06 5.153628400803e+03
    4.968000000000e+05-1.136213541031e-07 2.393709181058e+00 1.173466444016e-07
    9.807476095603e-01 3.662187500000e+02 1.819638692078e+00-8.288202379754e-09
   -7.643175511796e-11 1.000000000000e+00 2.155000000000e+03 0.000000000000e+00
    2.400000000000e+00 0.000000000000e+00-1.536682248116e-08 8.700000000000e+01
    4.896000000000e+05 4.000000000000e+00
26 21  4 30 18  0  0.0 7.920619100332e-05 5.115907697473e-12 0.000000000000e+00
    5.900000000000e+01 1.260000000000e+02 4.839487298357e-09-2.243870696484e+00
    6.306916475296e-06 5.799316917546e-03 8.506700396538e-06 5.153803480148e+03
    4.968000000000e+05 0.000000000000e+00 1.197308469641e+00-1.061707735062e-07
    9.421846779108e-01 2.070625000000e+02 3.029475068425e-01-8.155339702633e-09
    1.028614274485e-10 1.000000000000e+00 2.155000000000e+03 0.000000000000e+00
    2.400000000000e+00 0.000000000000e+00 6.984919309616e-09 5.900000000000e+01
    4.896000000000e+05 4.000000000000e+00
25 21  4 30 18  0  0.0 1.285164617002e-04 7.162270776462e-12 0.000000000000e+00
    8.000000000000e+01 1.466250000000e+02 4.444470844336e-09-1.542387764081e+00
    7.638707756996e-06 9.918251889758e-03 8.108094334602e-06 5.153641300201e+03
    4.968000000000e+05 1.993030309677e-07 1.238898218295e+00 1.303851604462e-08
    9.612189478846e-01 2.221250000000e+02 9.653015499413e-01-7.944973797192e-09
    1.360770967287e-10 1.000000000000e+00 2.155000000000e+03 0.000000000000e+00
    3.400000000000e+00 0.000000000000e+00 5.587935447693e-09 8.000000000000e+01
    4.896000000000e+05 4.000000000000e+00
20 21  4 30 18  0  0.0 5.226493813097e-04-3.410605131648e-13 0.000000000000e+00
    8.100000000000e+01-6.200000000000e+01 4.873417283106e-09 5.664701292404e-02
   -3.352761268616e-06 6.054425612092e-03 1.038797199726e-05 5.151711009979e+03
    4.968000000000e+05 1.098960638046e-07-2.045655360157e+00 2.980232238770e-08
    9.377402274559e-01 1.695000000000e+02 3.029300690053e+00-8.197841473003e-09
    3.582292073987e-10 1.000000000000e+00 2.155000000000e+03 0.000000000000e+00
    2.400000000000e+00 0.000000000000e+00-8.381903171539e-09 8.100000000000e+01
    4.896000000000e+05 4.000000000000e+00
28 21  4 30 18  0  0.0 5.786530673504e-04-5.911715561524e-12 0.000000000000e+00
    5.100000000000e+01 1.381250000000e+02 4.156601710574e-09 2.919780505698e+00
    7.040798664093e-06 1.746349222958e-02 6.515532732010e-06 5.154316396713e+03
    4.968000000000e+05 3.147870302200e-07 1.334417570042e+00 7.264316082001e-08
    9.729836253592e-01 2.571562500000e+02-1.338452271772e+00-7.637103830315e-09
    7.857470152314e-11 1.000000000000e+00 2.155000000000e+03 0.000000000000e+00
    2.400000000000e+00 0.000000000000e+00-1.117587089539e-08 5.100000000000e+01
    4.896000000000e+05 4.000000000000e+00
17 21  4 30 18  0  0.0 4.349276423454e-04 6.139089236967e-12 0.000000000000e+00
    6.500000000000e+01-2.437500000000e+00 4.254105772010e-09 2.273963111554e+00
   -2.235174179077e-07 1.334135991056e-02 4.619359970093e-07 5.153588092804e+03
    4.968000000000e+05 1.899898052216e-07 2.348513206213e+00-1.341104507446e-07
    9.822162227796e-01 3.761562500000e+02-1.568588027085e+00-8.003547665600e-09
   -1.625067690592e-10 1.000000000000e+00 2.155000000000e+03 0.000000000000e+00
    2.400000000000e+00 0.000000000000e+00-1.117587089539e-08 6.500000000000e+01
    4.896000000000e+05 4.000000000000e+00
14 21  4 30 18  0  0.0 9.136740118265e-05-4.092726157978e-12 0.000000000000e+00
    2.130000000000e+02 1.275625000000e+02 4.560547107950e-09-7.883227121881e-01
    6.563961505890e-06 6.214971654117e-04 7.007271051407e-06 5.153752656937e+03
    4.968000000000e+05 1.862645149231e-08 1.285344737939e+00 1.117587089539e-08
    9.573330161456e-01 2.432812500000e+02 2.578966716110e+00-8.076050685642e-09
    1.132190017402e-10 1.000000000000e+00 2.155000000000e+03 0.000000000000e+00
    2.400000000000e+00 0.000000000000e+00-7.916241884232e-09 2.130000000000e+02
    4.896000000000e+05 4.000000000000e+00
23 21  4 30 18  0  0.0 1.102196983993e-04-2.614797267597e-12 0.000000000000e+00
    8.200000000000e+01-5.446875000000e+01 4.172673808613e-09-3.129772571019e-01
   -2.823770046234e-06 1.135486527346e-03 1.050904393196e-05 5.153653057098e+03
    4.968000000000e+05 3.352761268616e-08-1.926901741592e+00-6.705522537231e-08
    9.636993371913e-01 1.832812500000e+02 2.588019191742e+00-7.716035689572e-09
    3.932306653499e-10 1.000000000000e+00 2.155000000000e+03 0.000000000000e+00
    2.400000000000e+00 0.000000000000e+00-8.381903171539e-09 8.500000000000e+02
    4.896000000000e+05 4.000000000000e+00
18 21  4 30 18  0  0.0 3.512511029840e-04-5.684341886081e-13 0.000000000000e+00
    6.400000000000e+01-1.354062500000e+02 4.183745698373e-09 3.474916331870e-01
   -7.268041372299e-06 1.338252681307e-03 6.262212991714e-06 5.153675193787e+03
    4.968000000000e+05 2.235174179077e-08-2.926021896465e+00 3.725290298462e-08
    9.681130297936e-01 2.615937500000e+02 2.932938946188e+00-8.049978171046e-09
   -2.932264997750e-10 1.000000000000e+00 2.155000000000e+03 0.000000000000e+00
    2.400000000000e+00 0.000000000000e+00-8.381903171539e-09 5.760000000000e+02
    4.896000000000e+05 4.000000000000e+00
24 21  4 30 18  0  0.0 4.729907959700e-05 2.694378054002e-11 0.000000000000e+00
    7.900000000000e+01 1.525000000000e+01 5.154857577652e-09 4.500031174647e-01
    7.133930921555e-07 1.106151740532e-02 9.328126907349e-06 5.153732435226e+03
    4.968000000000e+05-3.352761268616e-08 1.241650388523e-01 1.676380634308e-07
    9.355626343961e-01 1.897500000000e+02 7.386432884178e-01-8.293202588033e-09
   -5.118070331030e-10 1.000000000000e+00 2.155000000000e+03 0.000000000000e+00
    4.850000000000e+00 0.000000000000e+00 2.793967723846e-09 7.900000000000e+01
    4.896000000000e+05 4.000000000000e+00
31 21  4 30 17 59 44.0-1.146267168224e-04-2.160049916711e-12 0.000000000000e+00
    3.400000000000e+01 2.134375000000e+01 4.595905723635e-09-1.053510025641e+00
    1.037493348122e-06 9.945617872290e-03 9.262934327126e-06 5.153775482178e+03
    4.967840000000e+05 1.322478055954e-07 2.188923301785e-01-1.545995473862e-07
    9.565137542258e-01 1.916875000000e+02 2.599536713596e-01-7.932830434229e-09
   -3.478716331070e-10 1.000000000000e+00 2.155000000000e+03 0.000000000000e+00
    2.400000000000e+00 0.000000000000e+00-1.303851604462e-08 3.400000000000e+01
    4.902000000000e+05 4.000000000000e+00
25 21  4 30 17 59 44.0 1.285164617002e-04 7.162270776462e-12 0.000000000000e+00
    1.400000000000e+01 1.466250000000e+02 4.444470844336e-09-1.544721068679e+00
    7.638707756996e-06 9.918252588250e-03 8.108094334602e-06 5.153641304016e+03
    4.967840000000e+05 1.993030309677e-07 1.238898352884e+00 1.303851604462e-08
    9.612189508104e-01 2.221250000000e+02 9.653009574595e-01-7.944973797192e-09
    1.357199389945e-10 1.000000000000e+00 2.155000000000e+03 0.000000000000e+00
    2.400000000000e+00 0.000000000000e+00 5.587935447693e-09 1.400000000000e+01
    4.919700000000e+05 4.000000000000e+00
25 21  4 30 19 59 44.0 1.285681501031e-04 7.162270776462e-12 0.000000000000e+00
    1.500000000000e+01 1.408750000000e+02 4.423755695753e-09-4.943903677890e-01
    7.452443242073e-06 9.918688912876e-03 8.039176464081e-06 5.153643831253e+03
    5.039840000000e+05 9.313225746155e-09 1.238840497399e+00 1.322478055954e-07
    9.612188718128e-01 2.312500000000e+02 9.651690958755e-01-8.154625387165e-09
    1.071473202588e-10 1.000000000000e+00 2.155000000000e+03 0.000000000000e+00
    2.400000000000e+00 0.000000000000e+00 5.587935447693e-09 1.500000000000e+01
    4.968000000000e+05 4.000000000000e+00
31 21  4 30 19 59 44.0-1.146425493062e-04-2.160049916711e-12 0.000000000000e+00
    3.500000000000e+01 2.178125000000e+01 4.551618164595e-09-3.397624313262e-03
    1.333653926849e-06 9.945487487130e-03 9.614974260330e-06 5.153775203705e+03
    5.039840000000e+05 1.564621925354e-07 2.188350583986e-01 1.862645149231e-09
    9.565106660057e-01 1.907500000000e+02 2.599602735088e-01-8.022119867778e-09
   -3.982308736286e-10 1.000000000000e+00 2.155000000000e+03 0.000000000000e+00
    2.400000000000e+00 0.000000000000e+00-1.303851604462e-08 3.500000000000e+01
    4.968000000000e+05 4.000000000000e+00
 2 21  4 30 20  0  0.0-6.003007292747e-04-3.296918293927e-12 0.000000000000e+00
    7.700000000000e+01-1.242500000000e+02 4.407683597714e-09 1.409490571603e+00
   -6.966292858124e-06 2.021659607999e-02 6.055459380150e-06 5.153667617798e+03
    5.040000000000e+05-5.029141902924e-08-3.021434613188e+00-5.420297384262e-07
    9.631056265180e-01 2.672500000000e+02-1.522116023408e+00-8.127481399366e-09
   -2.003654888840e-10 1.000000000000e+00 2.155000000000e+03 0.000000000000e+00
    2.400000000000e+00 0.000000000000e+00-1.769512891769e-08 7.700000000000e+01
    4.968000000000e+05 4.000000000000e+00
